[{"OBJECT_NAME":"OBJECT F","OBJECT_ID":"2023-072F","EPOCH":"2026-03-09T23:31:37.259904","MEAN_MOTION":15.29470958,"ECCENTRICITY":0.00062878,"INCLINATION":97.5173,"RA_OF_ASC_NODE":265.798,"ARG_OF_PERICENTER":19.0017,"MEAN_ANOMALY":341.1456,"EPHEMERIS_TYPE":0,"CLASSIFICATION_TYPE":"U","NORAD_CAT_ID":56748,"ELEMENT_SET_NO":999,"REV_AT_EPOCH":15460,"BSTAR":0.00043416252,"MEAN_MOTION_DOT":0.00012341,"MEAN_MOTION_DDOT":0},{"OBJECT_NAME":"STARLINK-32010","OBJECT_ID":"2024-132B","EPOCH":"2026-03-09T22:21:18.698688","MEAN_MOTION":15.30183516,"ECCENTRICITY":0.00014181,"INCLINATION":53.1617,"RA_OF_ASC_NODE":51.5778,"ARG_OF_PERICENTER":94.2142,"MEAN_ANOMALY":265.902,"EPHEMERIS_TYPE":0,"CLASSIFICATION_TYPE":"U","NORAD_CAT_ID":60279,"ELEMENT_SET_NO":999,"REV_AT_EPOCH":9159,"BSTAR":1.6771462e-5,"MEAN_MOTION_DOT":1.37e-6,"MEAN_MOTION_DDOT":0}]
